COSMOS 1743             
1 16719U 86034A   25309.68340572  .00029150  00000+0  52569-3 0  9995
2 16719  82.5388 203.0006 0008307  39.3500 320.8353 15.49575104160999
SL-14 R/B               
1 16792U 86046B   25309.66594536  .00000591  00000+0  65547-4 0  9997
2 16792  82.4841 197.3216 0021644 278.9194  80.9571 14.85428092107999
SL-14 R/B               
1 16882U 86055B   25309.79427645  .00000736  00000+0  82279-4 0  9999
2 16882  82.5208 243.0831 0019769  26.4953   3.8339 14.85466874100970
AJISAI (EGS)            
1 16908U 86061A   25309.96582356 -.00000104  00000+0 -45541-4 0  9997
2 16908  50.0069 113.7940 0011155 333.1700 111.4278 12.44514161452599
COSMOS 1812             
1 17295U 87003A   25309.48121592  .00060248  00000+0  54039-3 0  9996
2 17295  82.4893 332.1162 0004110 158.1852 201.9584 15.68058216124800
SL-14 R/B               
1 17567U 87024B   25309.74435703  .00000650  00000+0  71563-4 0  9995
2 17567  82.5306 209.2014 0017225 315.1719  44.8105 14.85966908 69726
COSMOS 1833             
1 17589U 87027A   25309.97713184 -.00000270  00000+0 -11867-3 0  9999
2 17589  70.9157 226.0561 0020883  23.6948 336.5130 14.13022399992832
SL-16 R/B               
1 17590U 87027B   25309.67458939  .00000295  00000+0  17033-3 0  9998
2 17590  71.0015 177.8204 0006880 298.5032  61.5399 14.17144456997812
SL-14 R/B               
1 17912U 87038B   25309.74301541  .00000713  00000+0  80203-4 0  9997
2 17912  82.5030  53.5383 0018570 210.6024 149.4110 14.85202097 60838
COSMOS 1844             
1 17973U 87041A   25309.93106809  .00000464  00000+0  26591-3 0  9991
2 17973  70.8977 295.2064 0032126 211.7887 148.1297 14.14513942986080
SL-14 R/B               
1 18153U 87055B   25309.87614752  .00000687  00000+0  76518-4 0  9993
2 18153  82.4966 105.7285 0022047  64.7261 295.6236 14.85459247 51552
COSMOS 1867             
1 18187U 87060A   25309.92500482 -.00000008  00000+0  34737-4 0  9991
2 18187  65.0101 293.2977 0013738 267.4295  92.5217 14.31476619  2220
