CCSDS_OMM_VERS = 2.0
CREATION_DATE  = 
ORIGINATOR     = 

OBJECT_NAME    = COSMOS 1743
OBJECT_ID      = 1986-034A
CENTER_NAME    = EARTH
REF_FRAME      = TEME
TIME_SYSTEM    = UTC
MEAN_ELEMENT_THEORY = SGP/SGP4

EPOCH          = 2025-11-05T16:24:06.254208
MEAN_MOTION    = 15.49575104
ECCENTRICITY   = .00083071
INCLINATION    = 82.5388
RA_OF_ASC_NODE = 203.0006
ARG_OF_PERICENTER = 39.3500
MEAN_ANOMALY   = 320.8353

EPHEMERIS_TYPE = 0
CLASSIFICATION_TYPE = U
NORAD_CAT_ID   = 16719
ELEMENT_SET_NO = 999
REV_AT_EPOCH   = 16099
BSTAR          = .52569495E-3
MEAN_MOTION_DOT = .2915E-3
MEAN_MOTION_DDOT = 0

CCSDS_OMM_VERS = 2.0
CREATION_DATE  = 
ORIGINATOR     = 

OBJECT_NAME    = SL-14 R/B
OBJECT_ID      = 1986-046B
CENTER_NAME    = EARTH
REF_FRAME      = TEME
TIME_SYSTEM    = UTC
MEAN_ELEMENT_THEORY = SGP/SGP4

EPOCH          = 2025-11-05T15:58:57.679104
MEAN_MOTION    = 14.85428092
ECCENTRICITY   = .00216444
INCLINATION    = 82.4841
RA_OF_ASC_NODE = 197.3216
ARG_OF_PERICENTER = 278.9194
MEAN_ANOMALY   = 80.9571

EPHEMERIS_TYPE = 0
CLASSIFICATION_TYPE = U
NORAD_CAT_ID   = 16792
ELEMENT_SET_NO = 999
REV_AT_EPOCH   = 10799
BSTAR          = .65546618E-4
MEAN_MOTION_DOT = .591E-5
MEAN_MOTION_DDOT = 0

CCSDS_OMM_VERS = 2.0
CREATION_DATE  = 
ORIGINATOR     = 

OBJECT_NAME    = SL-14 R/B
OBJECT_ID      = 1986-055B
CENTER_NAME    = EARTH
REF_FRAME      = TEME
TIME_SYSTEM    = UTC
MEAN_ELEMENT_THEORY = SGP/SGP4

EPOCH          = 2025-11-05T19:03:45.485280
MEAN_MOTION    = 14.85466874
ECCENTRICITY   = .00197691
INCLINATION    = 82.5208
RA_OF_ASC_NODE = 243.0831
ARG_OF_PERICENTER = 26.4953
MEAN_ANOMALY   = 3.8339

EPHEMERIS_TYPE = 0
CLASSIFICATION_TYPE = U
NORAD_CAT_ID   = 16882
ELEMENT_SET_NO = 999
REV_AT_EPOCH   = 10097
BSTAR          = .82279442E-4
MEAN_MOTION_DOT = .736E-5
MEAN_MOTION_DDOT = 0

CCSDS_OMM_VERS = 2.0
CREATION_DATE  = 
ORIGINATOR     = 

OBJECT_NAME    = AJISAI (EGS)
OBJECT_ID      = 1986-061A
CENTER_NAME    = EARTH
REF_FRAME      = TEME
TIME_SYSTEM    = UTC
MEAN_ELEMENT_THEORY = SGP/SGP4

EPOCH          = 2025-11-05T23:10:47.155584
MEAN_MOTION    = 12.44514161
ECCENTRICITY   = .00111556
INCLINATION    = 50.0069
RA_OF_ASC_NODE = 113.7940
ARG_OF_PERICENTER = 333.1700
MEAN_ANOMALY   = 111.4278

EPHEMERIS_TYPE = 0
CLASSIFICATION_TYPE = U
NORAD_CAT_ID   = 16908
ELEMENT_SET_NO = 999
REV_AT_EPOCH   = 45259
BSTAR          = -.45541092E-4
MEAN_MOTION_DOT = -.104E-5
MEAN_MOTION_DDOT = 0

CCSDS_OMM_VERS = 2.0
CREATION_DATE  = 
ORIGINATOR     = 

OBJECT_NAME    = COSMOS 1812
OBJECT_ID      = 1987-003A
CENTER_NAME    = EARTH
REF_FRAME      = TEME
TIME_SYSTEM    = UTC
MEAN_ELEMENT_THEORY = SGP/SGP4

EPOCH          = 2025-11-05T11:32:57.055488
MEAN_MOTION    = 15.68058216
ECCENTRICITY   = .00041107
INCLINATION    = 82.4893
RA_OF_ASC_NODE = 332.1162
ARG_OF_PERICENTER = 158.1852
MEAN_ANOMALY   = 201.9584

EPHEMERIS_TYPE = 0
CLASSIFICATION_TYPE = U
NORAD_CAT_ID   = 17295
ELEMENT_SET_NO = 999
REV_AT_EPOCH   = 12480
BSTAR          = .54039483E-3
MEAN_MOTION_DOT = .60248E-3
MEAN_MOTION_DDOT = 0

CCSDS_OMM_VERS = 2.0
CREATION_DATE  = 
ORIGINATOR     = 

OBJECT_NAME    = SL-14 R/B
OBJECT_ID      = 1987-024B
CENTER_NAME    = EARTH
REF_FRAME      = TEME
TIME_SYSTEM    = UTC
MEAN_ELEMENT_THEORY = SGP/SGP4

EPOCH          = 2025-11-05T17:51:52.447392
MEAN_MOTION    = 14.85966908
ECCENTRICITY   = .00172257
INCLINATION    = 82.5306
RA_OF_ASC_NODE = 209.2014
ARG_OF_PERICENTER = 315.1719
MEAN_ANOMALY   = 44.8105

EPHEMERIS_TYPE = 0
CLASSIFICATION_TYPE = U
NORAD_CAT_ID   = 17567
ELEMENT_SET_NO = 999
REV_AT_EPOCH   = 6972
BSTAR          = .71562801E-4
MEAN_MOTION_DOT = .65E-5
MEAN_MOTION_DDOT = 0

CCSDS_OMM_VERS = 2.0
CREATION_DATE  = 
ORIGINATOR     = 

OBJECT_NAME    = COSMOS 1833
OBJECT_ID      = 1987-027A
CENTER_NAME    = EARTH
REF_FRAME      = TEME
TIME_SYSTEM    = UTC
MEAN_ELEMENT_THEORY = SGP/SGP4

EPOCH          = 2025-11-05T23:27:04.190976
MEAN_MOTION    = 14.13022399
ECCENTRICITY   = .00208835
INCLINATION    = 70.9157
RA_OF_ASC_NODE = 226.0561
ARG_OF_PERICENTER = 23.6948
MEAN_ANOMALY   = 336.5130

EPHEMERIS_TYPE = 0
CLASSIFICATION_TYPE = U
NORAD_CAT_ID   = 17589
ELEMENT_SET_NO = 999
REV_AT_EPOCH   = 99283
BSTAR          = -.11866955E-3
MEAN_MOTION_DOT = -.27E-5
MEAN_MOTION_DDOT = 0

CCSDS_OMM_VERS = 2.0
CREATION_DATE  = 
ORIGINATOR     = 

OBJECT_NAME    = SL-16 R/B
OBJECT_ID      = 1987-027B
CENTER_NAME    = EARTH
REF_FRAME      = TEME
TIME_SYSTEM    = UTC
MEAN_ELEMENT_THEORY = SGP/SGP4

EPOCH          = 2025-11-05T16:11:24.523296
MEAN_MOTION    = 14.17144456
ECCENTRICITY   = .00068807
INCLINATION    = 71.0015
RA_OF_ASC_NODE = 177.8204
ARG_OF_PERICENTER = 298.5032
MEAN_ANOMALY   = 61.5399

EPHEMERIS_TYPE = 0
CLASSIFICATION_TYPE = U
NORAD_CAT_ID   = 17590
ELEMENT_SET_NO = 999
REV_AT_EPOCH   = 99781
BSTAR          = .17033249E-3
MEAN_MOTION_DOT = .295E-5
MEAN_MOTION_DDOT = 0

CCSDS_OMM_VERS = 2.0
CREATION_DATE  = 
ORIGINATOR     = 

OBJECT_NAME    = SL-14 R/B
OBJECT_ID      = 1987-038B
CENTER_NAME    = EARTH
REF_FRAME      = TEME
TIME_SYSTEM    = UTC
MEAN_ELEMENT_THEORY = SGP/SGP4

EPOCH          = 2025-11-05T17:49:56.531424
MEAN_MOTION    = 14.85202097
ECCENTRICITY   = .00185708
INCLINATION    = 82.5030
RA_OF_ASC_NODE = 53.5383
ARG_OF_PERICENTER = 210.6024
MEAN_ANOMALY   = 149.4110

EPHEMERIS_TYPE = 0
CLASSIFICATION_TYPE = U
NORAD_CAT_ID   = 17912
ELEMENT_SET_NO = 999
REV_AT_EPOCH   = 6083
BSTAR          = .8020277E-4
MEAN_MOTION_DOT = .713E-5
MEAN_MOTION_DDOT = 0

CCSDS_OMM_VERS = 2.0
CREATION_DATE  = 
ORIGINATOR     = 

OBJECT_NAME    = COSMOS 1844
OBJECT_ID      = 1987-041A
CENTER_NAME    = EARTH
REF_FRAME      = TEME
TIME_SYSTEM    = UTC
MEAN_ELEMENT_THEORY = SGP/SGP4

EPOCH          = 2025-11-05T22:20:44.282976
MEAN_MOTION    = 14.14513942
ECCENTRICITY   = .00321263
INCLINATION    = 70.8977
RA_OF_ASC_NODE = 295.2064
ARG_OF_PERICENTER = 211.7887
MEAN_ANOMALY   = 148.1297

EPHEMERIS_TYPE = 0
CLASSIFICATION_TYPE = U
NORAD_CAT_ID   = 17973
ELEMENT_SET_NO = 999
REV_AT_EPOCH   = 98608
BSTAR          = .26590794E-3
MEAN_MOTION_DOT = .464E-5
MEAN_MOTION_DDOT = 0

CCSDS_OMM_VERS = 2.0
CREATION_DATE  = 
ORIGINATOR     = 

OBJECT_NAME    = SL-14 R/B
OBJECT_ID      = 1987-055B
CENTER_NAME    = EARTH
REF_FRAME      = TEME
TIME_SYSTEM    = UTC
MEAN_ELEMENT_THEORY = SGP/SGP4

EPOCH          = 2025-11-05T21:01:39.145728
MEAN_MOTION    = 14.85459247
ECCENTRICITY   = .00220477
INCLINATION    = 82.4966
RA_OF_ASC_NODE = 105.7285
ARG_OF_PERICENTER = 64.7261
MEAN_ANOMALY   = 295.6236

EPHEMERIS_TYPE = 0
CLASSIFICATION_TYPE = U
NORAD_CAT_ID   = 18153
ELEMENT_SET_NO = 999
REV_AT_EPOCH   = 5155
BSTAR          = .765178E-4
MEAN_MOTION_DOT = .687E-5
MEAN_MOTION_DDOT = 0

CCSDS_OMM_VERS = 2.0
CREATION_DATE  = 
ORIGINATOR     = 

OBJECT_NAME    = COSMOS 1867
OBJECT_ID      = 1987-060A
CENTER_NAME    = EARTH
REF_FRAME      = TEME
TIME_SYSTEM    = UTC
MEAN_ELEMENT_THEORY = SGP/SGP4

EPOCH          = 2025-11-05T22:12:00.416448
MEAN_MOTION    = 14.31476619
ECCENTRICITY   = .00137383
INCLINATION    = 65.0101
RA_OF_ASC_NODE = 293.2977
ARG_OF_PERICENTER = 267.4295
MEAN_ANOMALY   = 92.5217

EPHEMERIS_TYPE = 0
CLASSIFICATION_TYPE = U
NORAD_CAT_ID   = 18187
ELEMENT_SET_NO = 999
REV_AT_EPOCH   = 222
BSTAR          = .3473655E-4
MEAN_MOTION_DOT = -.8E-7
MEAN_MOTION_DDOT = 0

